IRIDIUM 126             
1 42809U 17039G   25288.47045686  .00000159  00000+0  49856-4 0  9998
2 42809  86.3916  95.9538 0002323  90.1660 269.9802 14.34218458434871
IRIDIUM 124             
1 42810U 17039H   25287.55188466  .00000444  00000+0  12606-3 0  9991
2 42810  86.4528  33.0365 0002131  90.4995 269.6450 14.43283913439683
IRIDIUM 128             
1 42811U 17039J   25288.94957656  .00000131  00000+0  39867-4 0  9993
2 42811  86.3943 127.2835 0001861  76.3878 283.7526 14.34214824434977
IRIDIUM 121             
1 42812U 17039K   25288.90808850  .00000069  00000+0  17466-4 0  9992
2 42812  86.3915  95.7965 0001926  89.2875 270.8541 14.34218182434810
IRIDIUM 133             
1 42955U 17061A   25288.84174524  .00000149  00000+0  46173-4 0  9998
2 42955  86.3946 127.4404 0002074  85.6229 274.5204 14.34218100419754
IRIDIUM 100             
1 42956U 17061B   25288.90517148  .00000153  00000+0  47634-4 0  9997
2 42956  86.3944 127.3383 0002204  83.7476 276.3970 14.34218136419766
IRIDIUM 122             
1 42957U 17061C   25288.80369010  .00000131  00000+0  39638-4 0  9991
2 42957  86.3946 127.3803 0002170  84.5196 275.6248 14.34218094419758
IRIDIUM 129             
1 42958U 17061D   25288.89882551  .00000134  00000+0  40828-4 0  9997
2 42958  86.3945 127.4048 0002288  96.8433 263.3023 14.34217450419783
